[{"OBJECT_NAME":"STARLINK-31136","OBJECT_ID":"2024-011H","EPOCH":"2026-03-09T06:06:22.536864","MEAN_MOTION":15.30191438,"ECCENTRICITY":8.738e-5,"INCLINATION":53.1616,"RA_OF_ASC_NODE":15.6954,"ARG_OF_PERICENTER":109.0799,"MEAN_ANOMALY":251.0296,"EPHEMERIS_TYPE":0,"CLASSIFICATION_TYPE":"U","NORAD_CAT_ID":58772,"ELEMENT_SET_NO":999,"REV_AT_EPOCH":12019,"BSTAR":5.949142e-6,"MEAN_MOTION_DOT":-1.83e-6,"MEAN_MOTION_DDOT":0},{"OBJECT_NAME":"ELECTRON KICK STAGE R\/B","OBJECT_ID":"2025-061J","EPOCH":"2026-03-09T21:50:35.145600","MEAN_MOTION":15.31602074,"ECCENTRICITY":0.00402669,"INCLINATION":97.5479,"RA_OF_ASC_NODE":52.3854,"ARG_OF_PERICENTER":150.2628,"MEAN_ANOMALY":210.0914,"EPHEMERIS_TYPE":0,"CLASSIFICATION_TYPE":"U","NORAD_CAT_ID":63359,"ELEMENT_SET_NO":999,"REV_AT_EPOCH":5306,"BSTAR":0.0006963674,"MEAN_MOTION_DOT":0.00021749,"MEAN_MOTION_DDOT":0}]
